1 99999U 99999 A  19213.00000000  .00000000  00000-0  00000-0 0    10
2 99999 097.2222 331.8182 0001962 091.0782 359.0176 15.37843164    16
